*******************************************************************************
Ephemeris / WWW_USER Mon Mar 24 06:42:22 2025 Pasadena, USA      / Horizons    
*******************************************************************************
Target body name: (2018 WV1)                      {source: JPL#17}
Center body name: Earth (399)                     {source: DE441}
Center-site name: Gemini South Obs., Cerro Pachon
*******************************************************************************
Start time      : A.D. 2018-Sep-29 22:51:00.0000 UT      
Stop  time      : A.D. 2018-Sep-30 10:14:00.0000 UT      
Step-size       : 1 minutes
*******************************************************************************
Target pole/equ : undefined
Target radii    : undefined                                                    
Center geodetic : 289.2634, -30.2406227, 2.71233  {E-lon(deg),Lat(deg),Alt(km)}
Center cylindric: 289.2634,5517.21435,-3194.81213 {E-lon(deg),Dxy(km),Dz(km)}
Center pole/equ : ITRF93                          {East-longitude positive}
Center radii    : 6378.137, 6378.137, 6356.752 km {Equator_a, b, pole_c}       
Target primary  : Sun
Vis. interferer : MOON (R_eq= 1737.400) km        {source: DE441}
Rel. light bend : Sun                             {source: DE441}
Rel. lght bnd GM: 1.3271E+11 km^3/s^2                                          
Small-body perts: Yes                             {source: SB441-N16}
Atmos refraction: NO (AIRLESS)
RA format       : HMS
Time format     : CAL 
Calendar mode   : Mixed Julian/Gregorian
RTS-only print  : NO       
EOP file        : eop.250321.p250617                                           
EOP coverage    : DATA-BASED 1962-JAN-20 TO 2025-MAR-21. PREDICTS-> 2025-JUN-16
Units conversion: 1 au= 149597870.700 km, c= 299792.458 km/s, 1 day= 86400.0 s 
Table cut-offs 1: Elevation (-90.0deg=NO ),Airmass (>38.000=NO), Daylight (YES)
Table cut-offs 2: Solar elongation (  0.0,180.0=NO ),Local Hour Angle( 0.0=NO )
Table cut-offs 3: RA/DEC angular rate (     0.0=NO )                           
*******************************************************************************
Initial IAU76/J2000 heliocentric ecliptic osculating elements (au, days, deg.):
  EPOCH=  2458458.5 ! 2018-Dec-06.00 (TDB)         Residual RMS= .12928        
   EC= .06869100257422787  QR= .9715505345748198   TP= 2458416.866413563       
   OM= 248.5061090469913   W=  141.3742304527303   IN= 1.905403987972275       
  Equivalent ICRF heliocentric cartesian coordinates (au, au/d):
   X= 2.787163119783287E-01  Y= 8.719775267121872E-01  Z= 3.748421051204766E-01
  VX=-1.676682657337402E-02 VY= 5.516972965834891E-03 VZ= 1.749720915605096E-03
Asteroid physical parameters (km, seconds, rotational period in hours):        
   GM= n.a.                RAD= n.a.               ROTPER= n.a.                
   H= 30.3                 G= .150                 B-V= n.a.                   
                           ALBEDO= n.a.            STYP= n.a.                  
*******************************************************************************
 Date__(UT)__HR:MN     R.A._________(ICRF)_________DEC
******************************************************
$$SOE
 2018-Sep-29 22:51 C   01 53 41.541586 +18 38 43.43844
 2018-Sep-29 22:52 C   01 53 41.568954 +18 38 43.93967
 2018-Sep-29 22:53 C   01 53 41.596209 +18 38 44.44106
 2018-Sep-29 22:54 C   01 53 41.623349 +18 38 44.94261
 2018-Sep-29 22:55 C   01 53 41.650375 +18 38 45.44432
 2018-Sep-29 22:56 C   01 53 41.677287 +18 38 45.94619
 2018-Sep-29 22:57 C   01 53 41.704085 +18 38 46.44822
 2018-Sep-29 22:58 C   01 53 41.730767 +18 38 46.95040
 2018-Sep-29 22:59 C   01 53 41.757335 +18 38 47.45273
 2018-Sep-29 23:00 C   01 53 41.783788 +18 38 47.95521
 2018-Sep-29 23:01 C   01 53 41.810125 +18 38 48.45784
 2018-Sep-29 23:02 C   01 53 41.836347 +18 38 48.96062
 2018-Sep-29 23:03 C   01 53 41.862454 +18 38 49.46353
 2018-Sep-29 23:04 C   01 53 41.888445 +18 38 49.96659
 2018-Sep-29 23:05 C   01 53 41.914321 +18 38 50.46978
 2018-Sep-29 23:06 C   01 53 41.940080 +18 38 50.97311
 2018-Sep-29 23:07 C   01 53 41.965724 +18 38 51.47658
 2018-Sep-29 23:08 N   01 53 41.991251 +18 38 51.98017
 2018-Sep-29 23:09 N   01 53 42.016662 +18 38 52.48389
 2018-Sep-29 23:10 N   01 53 42.041957 +18 38 52.98774
 2018-Sep-29 23:11 N   01 53 42.067135 +18 38 53.49171
 2018-Sep-29 23:12 N   01 53 42.092196 +18 38 53.99581
 2018-Sep-29 23:13 N   01 53 42.117141 +18 38 54.50003
 2018-Sep-29 23:14 N   01 53 42.141969 +18 38 55.00436
 2018-Sep-29 23:15 N   01 53 42.166679 +18 38 55.50880
 2018-Sep-29 23:16 N   01 53 42.191273 +18 38 56.01336
 2018-Sep-29 23:17 N   01 53 42.215750 +18 38 56.51803
 2018-Sep-29 23:18 N   01 53 42.240109 +18 38 57.02281
 2018-Sep-29 23:19 N   01 53 42.264350 +18 38 57.52770
 2018-Sep-29 23:20 N   01 53 42.288474 +18 38 58.03268
 2018-Sep-29 23:21 N   01 53 42.312480 +18 38 58.53777
 2018-Sep-29 23:22 N   01 53 42.336369 +18 38 59.04296
 2018-Sep-29 23:23 N   01 53 42.360140 +18 38 59.54824
 2018-Sep-29 23:24 N   01 53 42.383792 +18 39 00.05362
 2018-Sep-29 23:25 N   01 53 42.407327 +18 39 00.55909
 2018-Sep-29 23:26 N   01 53 42.430743 +18 39 01.06465
 2018-Sep-29 23:27 N   01 53 42.454041 +18 39 01.57029
 2018-Sep-29 23:28 N   01 53 42.477221 +18 39 02.07602
 2018-Sep-29 23:29 N   01 53 42.500283 +18 39 02.58184
 2018-Sep-29 23:30 N   01 53 42.523225 +18 39 03.08773
 2018-Sep-29 23:31 N   01 53 42.546050 +18 39 03.59370
 2018-Sep-29 23:32 N   01 53 42.568755 +18 39 04.09975
 2018-Sep-29 23:33 N   01 53 42.591342 +18 39 04.60587
 2018-Sep-29 23:34 N   01 53 42.613810 +18 39 05.11206
 2018-Sep-29 23:35 N   01 53 42.636159 +18 39 05.61831
 2018-Sep-29 23:36 A   01 53 42.658389 +18 39 06.12464
 2018-Sep-29 23:37 A   01 53 42.680500 +18 39 06.63103
 2018-Sep-29 23:38 A   01 53 42.702492 +18 39 07.13748
 2018-Sep-29 23:39 A   01 53 42.724364 +18 39 07.64398
 2018-Sep-29 23:40 A   01 53 42.746118 +18 39 08.15055
 2018-Sep-29 23:41 A   01 53 42.767752 +18 39 08.65717
 2018-Sep-29 23:42 A   01 53 42.789267 +18 39 09.16384
 2018-Sep-29 23:43 A   01 53 42.810662 +18 39 09.67056
 2018-Sep-29 23:44 A   01 53 42.831938 +18 39 10.17733
 2018-Sep-29 23:45 A   01 53 42.853094 +18 39 10.68414
 2018-Sep-29 23:46 A   01 53 42.874131 +18 39 11.19099
 2018-Sep-29 23:47 A   01 53 42.895048 +18 39 11.69789
 2018-Sep-29 23:48 A   01 53 42.915846 +18 39 12.20482
 2018-Sep-29 23:49 A   01 53 42.936524 +18 39 12.71179
 2018-Sep-29 23:50 A   01 53 42.957082 +18 39 13.21879
 2018-Sep-29 23:51 A   01 53 42.977520 +18 39 13.72582
 2018-Sep-29 23:52 A   01 53 42.997839 +18 39 14.23288
 2018-Sep-29 23:53 A   01 53 43.018037 +18 39 14.73997
 2018-Sep-29 23:54 A   01 53 43.038116 +18 39 15.24708
 2018-Sep-29 23:55 A   01 53 43.058075 +18 39 15.75421
 2018-Sep-29 23:56 A   01 53 43.077914 +18 39 16.26136
 2018-Sep-29 23:57 A   01 53 43.097633 +18 39 16.76852
 2018-Sep-29 23:58 A   01 53 43.117232 +18 39 17.27570
 2018-Sep-29 23:59 A   01 53 43.136711 +18 39 17.78289
 2018-Sep-30 00:00 A   01 53 43.156070 +18 39 18.29009
 2018-Sep-30 00:01 A   01 53 43.175309 +18 39 18.79730
 2018-Sep-30 00:02 A   01 53 43.194427 +18 39 19.30451
 2018-Sep-30 00:03 A   01 53 43.213426 +18 39 19.81173
 2018-Sep-30 00:04     01 53 43.232305 +18 39 20.31894
 2018-Sep-30 00:05     01 53 43.251064 +18 39 20.82615
 2018-Sep-30 00:06     01 53 43.269702 +18 39 21.33336
 2018-Sep-30 00:07     01 53 43.288221 +18 39 21.84056
 2018-Sep-30 00:08     01 53 43.306620 +18 39 22.34775
 2018-Sep-30 00:09     01 53 43.324898 +18 39 22.85493
 2018-Sep-30 00:10     01 53 43.343056 +18 39 23.36209
 2018-Sep-30 00:11     01 53 43.361095 +18 39 23.86923
 2018-Sep-30 00:12     01 53 43.379013 +18 39 24.37636
 2018-Sep-30 00:13     01 53 43.396811 +18 39 24.88347
 2018-Sep-30 00:14     01 53 43.414490 +18 39 25.39055
 2018-Sep-30 00:15     01 53 43.432048 +18 39 25.89760
 2018-Sep-30 00:16     01 53 43.449486 +18 39 26.40463
 2018-Sep-30 00:17     01 53 43.466804 +18 39 26.91163
 2018-Sep-30 00:18     01 53 43.484003 +18 39 27.41859
 2018-Sep-30 00:19     01 53 43.501081 +18 39 27.92551
 2018-Sep-30 00:20     01 53 43.518040 +18 39 28.43240
 2018-Sep-30 00:21     01 53 43.534879 +18 39 28.93925
 2018-Sep-30 00:22     01 53 43.551598 +18 39 29.44605
 2018-Sep-30 00:23     01 53 43.568197 +18 39 29.95281
 2018-Sep-30 00:24     01 53 43.584677 +18 39 30.45952
 2018-Sep-30 00:25     01 53 43.601036 +18 39 30.96619
 2018-Sep-30 00:26     01 53 43.617276 +18 39 31.47279
 2018-Sep-30 00:27     01 53 43.633397 +18 39 31.97935
 2018-Sep-30 00:28     01 53 43.649398 +18 39 32.48585
 2018-Sep-30 00:29     01 53 43.665279 +18 39 32.99228
 2018-Sep-30 00:30     01 53 43.681041 +18 39 33.49866
 2018-Sep-30 00:31     01 53 43.696684 +18 39 34.00497
 2018-Sep-30 00:32     01 53 43.712207 +18 39 34.51122
 2018-Sep-30 00:33     01 53 43.727611 +18 39 35.01739
 2018-Sep-30 00:34     01 53 43.742896 +18 39 35.52350
 2018-Sep-30 00:35     01 53 43.758061 +18 39 36.02953
 2018-Sep-30 00:36     01 53 43.773107 +18 39 36.53548
 2018-Sep-30 00:37     01 53 43.788035 +18 39 37.04136
 2018-Sep-30 00:38  r  01 53 43.802843 +18 39 37.54715
 2018-Sep-30 00:39     01 53 43.817533 +18 39 38.05287
 2018-Sep-30 00:40     01 53 43.832103 +18 39 38.55849
 2018-Sep-30 00:41     01 53 43.846555 +18 39 39.06403
 2018-Sep-30 00:42     01 53 43.860888 +18 39 39.56948
 2018-Sep-30 00:43     01 53 43.875103 +18 39 40.07484
 2018-Sep-30 00:44     01 53 43.889199 +18 39 40.58010
 2018-Sep-30 00:45     01 53 43.903177 +18 39 41.08527
 2018-Sep-30 00:46     01 53 43.917036 +18 39 41.59033
 2018-Sep-30 00:47     01 53 43.930777 +18 39 42.09530
 2018-Sep-30 00:48     01 53 43.944400 +18 39 42.60016
 2018-Sep-30 00:49     01 53 43.957905 +18 39 43.10491
 2018-Sep-30 00:50     01 53 43.971292 +18 39 43.60955
 2018-Sep-30 00:51     01 53 43.984561 +18 39 44.11408
 2018-Sep-30 00:52     01 53 43.997712 +18 39 44.61850
 2018-Sep-30 00:53     01 53 44.010746 +18 39 45.12281
